start=new Date('2023-05-22T00:00:00.000Z').valueOf();
sats=[{"TIME_SYSTEM":"UTC","ARG_OF_PERICENTER":"97.7918","GP_ID":"232284882","NORAD_CAT_ID":"52118","FILE":"3914061","DECAY_DATE":null,"MEAN_MOTION_DOT":"-0.00001551","REF_FRAME":"TEME","REV_AT_EPOCH":"6637","MEAN_MOTION":"15.08829296","TLE_LINE1":"1 52118U 22029AG  23141.85758658 -.00001551  00000-0 -79401-4 0  9994","MEAN_ANOMALY":"262.3212","MEAN_ELEMENT_THEORY":"SGP4","PERIAPSIS":"538.933","INCLINATION":"53.2157","ECCENTRICITY":"0.00012220","RA_OF_ASC_NODE":"350.7927","SITE":"AFETR","COUNTRY_CODE":"US","TLE_LINE2":"2 52118  53.2157 350.7927 0001222  97.7918 262.3212 15.08829296 66373","BSTAR":"-0.00007940100000","ELEMENT_SET_NO":"999","CENTER_NAME":"EARTH","EPHEMERIS_TYPE":"0","SEMIMAJOR_AXIS":"6917.913","OBJECT_ID":"2022-029AG","LAUNCH_DATE":"2022-03-19","RCS_SIZE":"LARGE","EPOCH":"2023-05-21T20:34:55.480512","OBJECT_NAME":"STARLINK-3743","CLASSIFICATION_TYPE":"U","PERIOD":"95.438","APOAPSIS":"540.623","MEAN_MOTION_DDOT":"0.0000000000000","OBJECT_TYPE":"PAYLOAD"},{"BSTAR":"-0.00004481200000","TLE_LINE2":"2 52119  53.2176 350.8740 0001194  89.4527 270.6602 15.08833135 66373","COUNTRY_CODE":"US","CENTER_NAME":"EARTH","ELEMENT_SET_NO":"999","SEMIMAJOR_AXIS":"6917.901","OBJECT_ID":"2022-029AH","EPHEMERIS_TYPE":"0","LAUNCH_DATE":"2022-03-19","OBJECT_NAME":"STARLINK-3558","RCS_SIZE":"LARGE","EPOCH":"2023-05-21T20:08:26.080800","APOAPSIS":"540.592","MEAN_MOTION_DDOT":"0.0000000000000","OBJECT_TYPE":"PAYLOAD","CLASSIFICATION_TYPE":"U","PERIOD":"95.438","TIME_SYSTEM":"UTC","ARG_OF_PERICENTER":"89.4527","NORAD_CAT_ID":"52119","GP_ID":"232284632","DECAY_DATE":null,"FILE":"3914061","MEAN_MOTION_DOT":"-0.00001001","REV_AT_EPOCH":"6637","REF_FRAME":"TEME","MEAN_ANOMALY":"270.6602","MEAN_ELEMENT_THEORY":"SGP4","MEAN_MOTION":"15.08833135","TLE_LINE1":"1 52119U 22029AH  23141.83919075 -.00001001  00000-0 -44812-4 0  9993","PERIAPSIS":"538.940","INCLINATION":"53.2176","RA_OF_ASC_NODE":"350.8740","SITE":"AFETR","ECCENTRICITY":"0.00011940"},{"OBJECT_NAME":"STARLINK-3534","EPOCH":"2023-05-21T20:24:19.337184","RCS_SIZE":"LARGE","LAUNCH_DATE":"2022-03-19","OBJECT_TYPE":"PAYLOAD","APOAPSIS":"540.409","MEAN_MOTION_DDOT":"0.0000000000000","PERIOD":"95.439","CLASSIFICATION_TYPE":"U","BSTAR":"0.00020920000000","TLE_LINE2":"2 52120  53.2163 350.8249 0000889 104.2847 255.8244 15.08824098 66382","COUNTRY_CODE":"US","OBJECT_ID":"2022-029AJ","SEMIMAJOR_AXIS":"6917.929","EPHEMERIS_TYPE":"0","CENTER_NAME":"EARTH","ELEMENT_SET_NO":"999","MEAN_ELEMENT_THEORY":"SGP4","MEAN_ANOMALY":"255.8244","TLE_LINE1":"1 52120U 22029AJ  23141.85022381  .00003042  00000-0  20920-3 0  9990","MEAN_MOTION":"15.08824098","REV_AT_EPOCH":"6638","REF_FRAME":"TEME","SITE":"AFETR","RA_OF_ASC_NODE":"350.8249","ECCENTRICITY":"0.00008890","INCLINATION":"53.2163","PERIAPSIS":"539.179","NORAD_CAT_ID":"52120","GP_ID":"232283881","ARG_OF_PERICENTER":"104.2847","TIME_SYSTEM":"UTC","MEAN_MOTION_DOT":"0.00003042","DECAY_DATE":null,"FILE":"3914061"},{"GP_ID":"232284131","NORAD_CAT_ID":"52121","TIME_SYSTEM":"UTC","ARG_OF_PERICENTER":"93.8113","MEAN_MOTION_DOT":"-0.00000796","FILE":"3914061","DECAY_DATE":null,"MEAN_MOTION":"15.08835817","TLE_LINE1":"1 52121U 22029AK  23141.82170816 -.00000796  00000-0 -31923-4 0  9996","MEAN_ANOMALY":"266.2977","MEAN_ELEMENT_THEORY":"SGP4","REF_FRAME":"TEME","REV_AT_EPOCH":"6650","ECCENTRICITY":"0.00008530","RA_OF_ASC_NODE":"340.9529","SITE":"AFETR","PERIAPSIS":"539.168","INCLINATION":"53.2175","TLE_LINE2":"2 52121  53.2175 340.9529 0000853  93.8113 266.2977 15.08835817 66501","COUNTRY_CODE":"US","BSTAR":"-0.00003192300000","EPHEMERIS_TYPE":"0","SEMIMAJOR_AXIS":"6917.893","OBJECT_ID":"2022-029AK","ELEMENT_SET_NO":"999","CENTER_NAME":"EARTH","RCS_SIZE":"LARGE","EPOCH":"2023-05-21T19:43:15.585024","OBJECT_NAME":"STARLINK-3678","LAUNCH_DATE":"2022-03-19","CLASSIFICATION_TYPE":"U","PERIOD":"95.438","APOAPSIS":"540.348","MEAN_MOTION_DDOT":"0.0000000000000","OBJECT_TYPE":"PAYLOAD"},{"MEAN_MOTION_DOT":"-0.00001219","DECAY_DATE":null,"FILE":"3914061","NORAD_CAT_ID":"52122","GP_ID":"232284382","TIME_SYSTEM":"UTC","ARG_OF_PERICENTER":"80.8427","SITE":"AFETR","RA_OF_ASC_NODE":"350.8584","ECCENTRICITY":"0.00012720","INCLINATION":"53.2175","PERIAPSIS":"538.889","MEAN_ANOMALY":"279.2708","MEAN_ELEMENT_THEORY":"SGP4","TLE_LINE1":"1 52122U 22029AL  23141.84287183 -.00001219  00000-0 -58544-4 0  9994","MEAN_MOTION":"15.08832189","REV_AT_EPOCH":"6637","REF_FRAME":"TEME","OBJECT_ID":"2022-029AL","SEMIMAJOR_AXIS":"6917.904","EPHEMERIS_TYPE":"0","CENTER_NAME":"EARTH","ELEMENT_SET_NO":"999","BSTAR":"-0.00005854400000","TLE_LINE2":"2 52122  53.2175 350.8584 0001272  80.8427 279.2708 15.08832189 66373","COUNTRY_CODE":"US","OBJECT_TYPE":"PAYLOAD","APOAPSIS":"540.649","MEAN_MOTION_DDOT":"0.0000000000000","PERIOD":"95.438","CLASSIFICATION_TYPE":"U","OBJECT_NAME":"STARLINK-3726","EPOCH":"2023-05-21T20:13:44.126112","RCS_SIZE":"LARGE","LAUNCH_DATE":"2022-03-19"},{"CENTER_NAME":"EARTH","ELEMENT_SET_NO":"999","OBJECT_ID":"2022-029AM","SEMIMAJOR_AXIS":"6917.907","EPHEMERIS_TYPE":"0","BSTAR":"-0.00009329300000","TLE_LINE2":"2 52123  53.2180 340.9454 0000989  75.6293 284.4808 15.08831160 66516","COUNTRY_CODE":"US","OBJECT_TYPE":"PAYLOAD","APOAPSIS":"540.457","MEAN_MOTION_DDOT":"0.0000000000000","PERIOD":"95.438","CLASSIFICATION_TYPE":"U","LAUNCH_DATE":"2022-03-19","OBJECT_NAME":"STARLINK-3725","EPOCH":"2023-05-21T19:23:25.527840","RCS_SIZE":"LARGE","DECAY_DATE":null,"FILE":"3914061","MEAN_MOTION_DOT":"-0.00001772","TIME_SYSTEM":"UTC","ARG_OF_PERICENTER":"75.6293","NORAD_CAT_ID":"52123","GP_ID":"232285133","INCLINATION":"53.2180","PERIAPSIS":"539.088","SITE":"AFETR","RA_OF_ASC_NODE":"340.9454","ECCENTRICITY":"0.00009890","REV_AT_EPOCH":"6651","REF_FRAME":"TEME","MEAN_ELEMENT_THEORY":"SGP4","MEAN_ANOMALY":"284.4808","TLE_LINE1":"1 52123U 22029AM  23141.80793435 -.00001772  00000-0 -93293-4 0  9997","MEAN_MOTION":"15.08831160"},{"ELEMENT_SET_NO":"999","CENTER_NAME":"EARTH","EPHEMERIS_TYPE":"0","OBJECT_ID":"2022-029AN","SEMIMAJOR_AXIS":"6917.902","TLE_LINE2":"2 52124  53.2187 350.8866 0001095  88.5982 271.5136 15.08832893 66377","COUNTRY_CODE":"US","BSTAR":"-0.00008876000000","PERIOD":"95.438","CLASSIFICATION_TYPE":"U","OBJECT_TYPE":"PAYLOAD","APOAPSIS":"540.525","MEAN_MOTION_DDOT":"0.0000000000000","LAUNCH_DATE":"2022-03-19","EPOCH":"2023-05-21T20:03:08.191872","RCS_SIZE":"LARGE","OBJECT_NAME":"STARLINK-3684","FILE":"3914061","DECAY_DATE":null,"MEAN_MOTION_DOT":"-0.00001700","TIME_SYSTEM":"UTC","ARG_OF_PERICENTER":"88.5982","GP_ID":"232283381","NORAD_CAT_ID":"52124","INCLINATION":"53.2187","PERIAPSIS":"539.010","ECCENTRICITY":"0.00010950","SITE":"AFETR","RA_OF_ASC_NODE":"350.8866","REF_FRAME":"TEME","REV_AT_EPOCH":"6637","TLE_LINE1":"1 52124U 22029AN  23141.83551148 -.00001700  00000-0 -88760-4 0  9998","MEAN_MOTION":"15.08832893","MEAN_ANOMALY":"271.5136","MEAN_ELEMENT_THEORY":"SGP4"},{"TIME_SYSTEM":"UTC","ARG_OF_PERICENTER":"73.9774","NORAD_CAT_ID":"52125","GP_ID":"232283631","DECAY_DATE":null,"FILE":"3914061","MEAN_MOTION_DOT":"-0.00001020","REV_AT_EPOCH":"6651","REF_FRAME":"TEME","MEAN_ANOMALY":"286.1327","MEAN_ELEMENT_THEORY":"SGP4","MEAN_MOTION":"15.08826307","TLE_LINE1":"1 52125U 22029AP  23141.81067626 -.00001020  00000-0 -46023-4 0  9991","PERIAPSIS":"539.108","INCLINATION":"53.2166","RA_OF_ASC_NODE":"341.0067","SITE":"AFETR","ECCENTRICITY":"0.00009820","BSTAR":"-0.00004602300000","COUNTRY_CODE":"US","TLE_LINE2":"2 52125  53.2166 341.0067 0000982  73.9774 286.1327 15.08826307 66514","CENTER_NAME":"EARTH","ELEMENT_SET_NO":"999","SEMIMAJOR_AXIS":"6917.922","OBJECT_ID":"2022-029AP","EPHEMERIS_TYPE":"0","LAUNCH_DATE":"2022-03-19","OBJECT_NAME":"STARLINK-3727","RCS_SIZE":"LARGE","EPOCH":"2023-05-21T19:27:22.428864","MEAN_MOTION_DDOT":"0.0000000000000","APOAPSIS":"540.467","OBJECT_TYPE":"PAYLOAD","CLASSIFICATION_TYPE":"U","PERIOD":"95.438"},{"NORAD_CAT_ID":"52126","GP_ID":"232284883","ARG_OF_PERICENTER":"87.1053","TIME_SYSTEM":"UTC","MEAN_MOTION_DOT":"-0.00001075","DECAY_DATE":null,"FILE":"3914061","MEAN_ELEMENT_THEORY":"SGP4","MEAN_ANOMALY":"273.0062","MEAN_MOTION":"15.08834598","TLE_LINE1":"1 52126U 22029AQ  23141.81802973 -.00001075  00000-0 -49495-4 0  9990","REV_AT_EPOCH":"6650","REF_FRAME":"TEME","RA_OF_ASC_NODE":"340.9701","SITE":"AFETR","ECCENTRICITY":"0.00010710","PERIAPSIS":"539.021","INCLINATION":"53.2175","BSTAR":"-0.00004949500000","TLE_LINE2":"2 52126  53.2175 340.9701 0001071  87.1053 273.0062 15.08834598 66506","COUNTRY_CODE":"US","SEMIMAJOR_AXIS":"6917.897","OBJECT_ID":"2022-029AQ","EPHEMERIS_TYPE":"0","CENTER_NAME":"EARTH","ELEMENT_SET_NO":"999","OBJECT_NAME":"STARLINK-3732","RCS_SIZE":"LARGE","EPOCH":"2023-05-21T19:37:57.768672","LAUNCH_DATE":"2022-03-19","APOAPSIS":"540.503","MEAN_MOTION_DDOT":"0.0000000000000","OBJECT_TYPE":"PAYLOAD","CLASSIFICATION_TYPE":"U","PERIOD":"95.438"},{"TIME_SYSTEM":"UTC","ARG_OF_PERICENTER":"70.7958","NORAD_CAT_ID":"52127","GP_ID":"232284633","DECAY_DATE":null,"FILE":"3914061","MEAN_MOTION_DOT":"-0.00000803","REV_AT_EPOCH":"6650","REF_FRAME":"TEME","MEAN_ELEMENT_THEORY":"SGP4","MEAN_ANOMALY":"289.3181","MEAN_MOTION":"15.08833490","TLE_LINE1":"1 52127U 22029AR  23141.80698626 -.00000803  00000-0 -32355-4 0  9993","PERIAPSIS":"538.827","INCLINATION":"53.2176","RA_OF_ASC_NODE":"341.0183","SITE":"AFETR","ECCENTRICITY":"0.00013560","BSTAR":"-0.00003235500000","COUNTRY_CODE":"US","TLE_LINE2":"2 52127  53.2176 341.0183 0001356  70.7958 289.3181 15.08833490 66504","CENTER_NAME":"EARTH","ELEMENT_SET_NO":"999","SEMIMAJOR_AXIS":"6917.900","OBJECT_ID":"2022-029AR","EPHEMERIS_TYPE":"0","LAUNCH_DATE":"2022-03-19","OBJECT_NAME":"STARLINK-3715","RCS_SIZE":"LARGE","EPOCH":"2023-05-21T19:22:03.612864","APOAPSIS":"540.703","MEAN_MOTION_DDOT":"0.0000000000000","OBJECT_TYPE":"PAYLOAD","CLASSIFICATION_TYPE":"U","PERIOD":"95.438"}];
